HULIANWANG DIGUI-119    
1 67059U 25295A   26063.84968861 -.00000063  00000+0  10811-3 0  9990
2 67059  50.0043  40.9840 0000230 333.6345  26.4524 13.49182432 11606
HULIANWANG DIGUI-120    
1 67060U 25295B   26063.02193479 -.00000064  00000+0  10563-3 0  9992
2 67060  50.0045  43.9402 0000532 232.7248 127.3584 13.50312018 11494
HULIANWANG DIGUI-121    
1 67061U 25295C   26063.47307333 -.00000063  00000+0  10685-3 0  9992
2 67061  50.0010  42.2948 0000513 230.7953 129.2882 13.49344229 11550
HULIANWANG DIGUI-122    
1 67062U 25295D   26063.68139713 -.00000063  00000+0  10690-3 0  9997
2 67062  50.0036  41.4278 0000493 322.7161  37.3686 13.49722832 11580
HULIANWANG DIGUI-123    
1 67063U 25295E   26063.82241851 -.00000043  00000+0  13870-3 0  9992
2 67063  50.0046  40.8418 0000324 308.9409  51.1443 13.49679503 11609
HULIANWANG DIGUI-124    
1 67064U 25295F   26063.44608486 -.00000061  00000+0  11056-3 0  9996
2 67064  49.9987  42.1543 0001420   1.0031 359.0853 13.49900205 11550
HULIANWANG DIGUI-125    
1 67065U 25295G   26063.36545430 -.00000061  00000+0  11015-3 0  9992
2 67065  50.0019  42.3803 0001989  28.9203 331.1788 13.50013531 11546
HULIANWANG DIGUI-126    
1 67066U 25295H   26063.80238610 -.00000083  00000+0  76126-4 0  9990
2 67066  50.0001  40.6902 0000835  53.3551 306.7407 13.49977054 11606
HULIANWANG DIGUI-127    
1 67067U 25295J   26063.27371189 -.00000317  00000+0 -29115-3 0  9997
2 67067  50.0053  42.5703 0001308  40.5730 319.5249 13.49908062 11538
HULIANWANG DIGUI-128    
1 67236U 25311A   26064.14414762 -.00000044  00000+0  16271-3 0  9991
2 67236  50.0066 128.7172 0000955   8.7924 351.2967 13.34168672  9508
HULIANWANG DIGUI-129    
1 67237U 25311B   26063.85227036 -.00000053  00000+0  14560-3 0  9994
2 67237  50.0064 129.8324 0000902 289.9521  70.1256 13.33962421  9462
HULIANWANG DIGUI-130    
1 67238U 25311C   26063.89956907 -.00000049  00000+0  15587-3 0  9990
2 67238  50.0044 130.0596 0001074 281.7227  78.3526 13.32770424  9469
HULIANWANG DIGUI-131    
1 67239U 25311D   26064.20762560 -.00000046  00000+0  16162-3 0  9994
2 67239  50.0041 129.0155 0000451 272.5117  87.5705 13.32648443  9501
HULIANWANG DIGUI-132    
1 67240U 25311E   26063.73365419 -.00000062  00000+0  12929-3 0  9990
2 67240  50.0052 130.5236 0000242 246.6930 113.3919 13.33118792  9443
HULIANWANG DIGUI-133    
1 67241U 25311F   26063.86786585 -.00000054  00000+0  14400-3 0  9993
2 67241  50.0097 129.9321 0000503 260.1025  99.9792 13.33559190  9467
HULIANWANG DIGUI-134    
1 67242U 25311G   26063.72597117 -.00000055  00000+0  14350-3 0  9995
2 67242  50.0024 130.4695 0000201  94.2818 265.8079 13.33383633  9447
HULIANWANG DIGUI-135    
1 67243U 25311H   26063.59169898 -.00000053  00000+0  14776-3 0  9992
2 67243  50.0009 131.0806 0000880 265.6623  94.4150 13.32978892  9423
HULIANWANG DIGUI-136    
1 67244U 25311J   26062.28737188 -.00000063  00000+0  12459-3 0  9998
2 67244  50.0120 135.5779 0001734 318.4482  41.6261 13.35587069  9258
HULIANWANG DIGUI-137    
1 67435U 26007A   26062.29512125 -.00000025  00000+0  17791-3 0  9998
2 67435  50.0080 106.1504 0001749 116.8856 243.2202 13.44406338  6695
HULIANWANG DIGUI-138    
1 67436U 26007B   26062.30877377 -.00000028  00000+0  17503-3 0  9998
2 67436  50.0071 106.2207 0000593 208.7560 151.3286 13.43759555  6698
HULIANWANG DIGUI-139    
1 67437U 26007C   26064.01342827 -.00000012  00000+0  20610-3 0  9992
2 67437  50.0019  99.9004 0000589 100.1492 259.9452 13.42449756  6922
HULIANWANG DIGUI-140    
1 67438U 26007D   26062.31585352 -.00000014  00000+0  19847-3 0  9998
2 67438  50.0067 106.2628 0000613 210.9682 149.1160 13.43527498  6690
HULIANWANG DIGUI-141    
1 67439U 26007E   26062.28868162 -.00000024  00000+0  17960-3 0  9993
2 67439  50.0174 106.0944 0000967 218.2307 141.8504 13.44477953  6698
HULIANWANG DIGUI-142    
1 67440U 26007F   26063.39753489 -.00000107  00000+0  38929-4 0  9994
2 67440  50.0104 102.0096 0003260 327.4413  32.6264 13.43451065  6849
HULIANWANG DIGUI-143    
1 67441U 26007G   26062.27569739 -.00000027  00000+0  17428-3 0  9995
2 67441  50.0133 106.0859 0001458 312.0229  48.0526 13.44825453  6697
HULIANWANG DIGUI-144    
1 67442U 26007H   26063.16087228 -.00000032  00000+0  16586-3 0  9993
2 67442  50.0083 102.7600 0001404 304.1760  55.8985 13.44212062  6817
HULIANWANG DIGUI-145    
1 67443U 26007J   26062.33708830 -.00000023  00000+0  17986-3 0  9996
2 67443  50.0026 105.7349 0002394 195.2425 164.8382 13.44957016  6709
